{
    "week": 296,
    "satellites": [
        {
            "Name": "GSAT0218 (GALILEO 22)",
            "Line1": "1 43058U 17079D   24344.25437773  .00000020  00000+0  00000+0 0  9999",
            "Line2": "2 43058  55.2646 236.7761 0002955 302.5364  57.5067  1.70473770 43526",
            "SatelliteNumber": "43058",
            "Classification": "U",
            "LaunchYear": "17",
            "LaunchNumber": "079",
            "PieceOfLaunch": "D",
            "EpochYear": "24",
            "EpochDay": 344.25437773,
            "FirstDerivativeMeanMotion": 2e-07,
            "SecondDerivativeMeanMotion": "00000+0",
            "BSTAR": "00000+0",
            "SetNumber": "999",
            "Inclination": 55.2646,
            "RAAN": 236.7761,
            "Eccentricity": 0.0002955,
            "ArgumentOfPerigee": 302.5364,
            "MeanAnomaly": 57.5067,
            "MeanMotion": 1.7047377,
            "RevolutionNumber": "4352"
        },
        {
            "Name": "GSAT0221 (GALILEO 25)",
            "Line1": "1 43564U 18060A   24344.74199128 -.00000066  00000+0  00000+0 0  9996",
            "Line2": "2 43564  57.2950 356.7394 0006361 277.7073  82.2614  1.70475666 39724",
            "SatelliteNumber": "43564",
            "Classification": "U",
            "LaunchYear": "18",
            "LaunchNumber": "060",
            "PieceOfLaunch": "A",
            "EpochYear": "24",
            "EpochDay": 344.74199128,
            "FirstDerivativeMeanMotion": -6.6e-07,
            "SecondDerivativeMeanMotion": "00000+0",
            "BSTAR": "00000+0",
            "SetNumber": "999",
            "Inclination": 57.295,
            "RAAN": 356.7394,
            "Eccentricity": 0.0006361,
            "ArgumentOfPerigee": 277.7073,
            "MeanAnomaly": 82.2614,
            "MeanMotion": 1.70475666,
            "RevolutionNumber": "3972"
        },
        {
            "Name": "GSAT0222 (GALILEO 26)",
            "Line1": "1 43565U 18060B   24342.61441315 -.00000062  00000+0  00000+0 0  9995",
            "Line2": "2 43565  57.2991 356.7989 0005789 257.5995 102.3775  1.70475514 39726",
            "SatelliteNumber": "43565",
            "Classification": "U",
            "LaunchYear": "18",
            "LaunchNumber": "060",
            "PieceOfLaunch": "B",
            "EpochYear": "24",
            "EpochDay": 342.61441315,
            "FirstDerivativeMeanMotion": -6.2e-07,
            "SecondDerivativeMeanMotion": "00000+0",
            "BSTAR": "00000+0",
            "SetNumber": "999",
            "Inclination": 57.2991,
            "RAAN": 356.7989,
            "Eccentricity": 0.0005789,
            "ArgumentOfPerigee": 257.5995,
            "MeanAnomaly": 102.3775,
            "MeanMotion": 1.70475514,
            "RevolutionNumber": "3972"
        },
        {
            "Name": "GSAT0219 (GALILEO 23)",
            "Line1": "1 43566U 18060C   24344.00921509 -.00000064  00000+0  00000+0 0  9991",
            "Line2": "2 43566  57.2977 356.7631 0005488 282.4599  77.5199  1.70475671 39725",
            "SatelliteNumber": "43566",
            "Classification": "U",
            "LaunchYear": "18",
            "LaunchNumber": "060",
            "PieceOfLaunch": "C",
            "EpochYear": "24",
            "EpochDay": 344.00921509,
            "FirstDerivativeMeanMotion": -6.4e-07,
            "SecondDerivativeMeanMotion": "00000+0",
            "BSTAR": "00000+0",
            "SetNumber": "999",
            "Inclination": 57.2977,
            "RAAN": 356.7631,
            "Eccentricity": 0.0005488,
            "ArgumentOfPerigee": 282.4599,
            "MeanAnomaly": 77.5199,
            "MeanMotion": 1.70475671,
            "RevolutionNumber": "3972"
        },
        {
            "Name": "GSAT0220 (GALILEO 24)",
            "Line1": "1 43567U 18060D   24344.81654737 -.00000067  00000+0  00000+0 0  9990",
            "Line2": "2 43567  57.2976 356.7418 0005846 280.5083  79.4668  1.70475372 39712",
            "SatelliteNumber": "43567",
            "Classification": "U",
            "LaunchYear": "18",
            "LaunchNumber": "060",
            "PieceOfLaunch": "D",
            "EpochYear": "24",
            "EpochDay": 344.81654737,
            "FirstDerivativeMeanMotion": -6.7e-07,
            "SecondDerivativeMeanMotion": "00000+0",
            "BSTAR": "00000+0",
            "SetNumber": "999",
            "Inclination": 57.2976,
            "RAAN": 356.7418,
            "Eccentricity": 0.0005846,
            "ArgumentOfPerigee": 280.5083,
            "MeanAnomaly": 79.4668,
            "MeanMotion": 1.70475372,
            "RevolutionNumber": "3971"
        },
        {
            "Name": "GSAT0223 (GALILEO 27)",
            "Line1": "1 49809U 21116A   24344.96039142 -.00000067  00000+0  00000+0 0  9994",
            "Line2": "2 49809  57.2877 356.6311 0004255 245.8528 292.9506  1.70475562 18721",
            "SatelliteNumber": "49809",
            "Classification": "U",
            "LaunchYear": "21",
            "LaunchNumber": "116",
            "PieceOfLaunch": "A",
            "EpochYear": "24",
            "EpochDay": 344.96039142,
            "FirstDerivativeMeanMotion": -6.7e-07,
            "SecondDerivativeMeanMotion": "00000+0",
            "BSTAR": "00000+0",
            "SetNumber": "999",
            "Inclination": 57.2877,
            "RAAN": 356.6311,
            "Eccentricity": 0.0004255,
            "ArgumentOfPerigee": 245.8528,
            "MeanAnomaly": 292.9506,
            "MeanMotion": 1.70475562,
            "RevolutionNumber": "1872"
        },
        {
            "Name": "GSAT0224 (GALILEO 28)",
            "Line1": "1 49810U 21116B   24344.65902760 -.00000066  00000+0  00000+0 0  9996",
            "Line2": "2 49810  57.2884 356.6378 0003701 250.4890 215.8895  1.70475597 18759",
            "SatelliteNumber": "49810",
            "Classification": "U",
            "LaunchYear": "21",
            "LaunchNumber": "116",
            "PieceOfLaunch": "B",
            "EpochYear": "24",
            "EpochDay": 344.6590276,
            "FirstDerivativeMeanMotion": -6.6e-07,
            "SecondDerivativeMeanMotion": "00000+0",
            "BSTAR": "00000+0",
            "SetNumber": "999",
            "Inclination": 57.2884,
            "RAAN": 356.6378,
            "Eccentricity": 0.0003701,
            "ArgumentOfPerigee": 250.489,
            "MeanAnomaly": 215.8895,
            "MeanMotion": 1.70475597,
            "RevolutionNumber": "1875"
        },
        {
            "Name": "GSAT0225 (GALILEO 29)",
            "Line1": "1 59598U 24079A   24344.60091103  .00000046  00000+0  00000+0 0  9993",
            "Line2": "2 59598  54.7928 116.5994 0002955 172.0085 249.7956  1.70474651  3844",
            "SatelliteNumber": "59598",
            "Classification": "U",
            "LaunchYear": "24",
            "LaunchNumber": "079",
            "PieceOfLaunch": "A",
            "EpochYear": "24",
            "EpochDay": 344.60091103,
            "FirstDerivativeMeanMotion": 4.6e-07,
            "SecondDerivativeMeanMotion": "00000+0",
            "BSTAR": "00000+0",
            "SetNumber": "999",
            "Inclination": 54.7928,
            "RAAN": 116.5994,
            "Eccentricity": 0.0002955,
            "ArgumentOfPerigee": 172.0085,
            "MeanAnomaly": 249.7956,
            "MeanMotion": 1.70474651,
            "RevolutionNumber": "384"
        },
        {
            "Name": "GSAT0227 (GALILEO 30)",
            "Line1": "1 59600U 24079C   24341.16401885  .00000051  00000+0  00000+0 0  9993",
            "Line2": "2 59600  54.7864 116.6957 0003468 121.3916 238.6122  1.70474686  3858",
            "SatelliteNumber": "59600",
            "Classification": "U",
            "LaunchYear": "24",
            "LaunchNumber": "079",
            "PieceOfLaunch": "C",
            "EpochYear": "24",
            "EpochDay": 341.16401885,
            "FirstDerivativeMeanMotion": 5.1e-07,
            "SecondDerivativeMeanMotion": "00000+0",
            "BSTAR": "00000+0",
            "SetNumber": "999",
            "Inclination": 54.7864,
            "RAAN": 116.6957,
            "Eccentricity": 0.0003468,
            "ArgumentOfPerigee": 121.3916,
            "MeanAnomaly": 238.6122,
            "MeanMotion": 1.70474686,
            "RevolutionNumber": "385"
        },
        {
            "Name": "GSAT0232 (GALILEO 32)",
            "Line1": "1 61182U 24167A   24321.21686440 -.00000004  00000+0  00000+0 0  9994",
            "Line2": "2 61182  55.3884 237.1378 0015743 276.0571  83.7985  1.73178105  1028",
            "SatelliteNumber": "61182",
            "Classification": "U",
            "LaunchYear": "24",
            "LaunchNumber": "167",
            "PieceOfLaunch": "A",
            "EpochYear": "24",
            "EpochDay": 321.2168644,
            "FirstDerivativeMeanMotion": -4e-08,
            "SecondDerivativeMeanMotion": "00000+0",
            "BSTAR": "00000+0",
            "SetNumber": "999",
            "Inclination": 55.3884,
            "RAAN": 237.1378,
            "Eccentricity": 0.0015743,
            "ArgumentOfPerigee": 276.0571,
            "MeanAnomaly": 83.7985,
            "MeanMotion": 1.73178105,
            "RevolutionNumber": "102"
        }
    ]
}